ORBCOMM FM06            
1 25118U 97084G   23315.65655859  .00002699  00000+0  86407-3 0  9991
2 25118  45.0151 279.8724 0001843 252.2065 277.4817 14.41664547357195
ORBCOMM FM04            
1 25159U 98007C   23315.93857345  .00001500  00000+0  60396-3 0  9996
2 25159 107.9758  23.0510 0044048 187.5307 172.5174 14.31729160340663
ORBCOMM FM19            
1 25415U 98046C   23315.55257867  .00001943  00000+0  72600-3 0  9997
2 25415  44.9952  57.9971 0004634 218.0611 156.9320 14.34921816320286
ORBCOMM FM05 [-]        
1 25117U 97084F   23316.15104386  .00002038  00000+0  66262-3 0  9994
2 25117  45.0161 277.3470 0001903 224.3858 135.6840 14.41709559357298
ORBCOMM FM07 [-]        
1 25119U 97084H   23316.16105203  .00002246  00000+0  72725-3 0  9998
2 25119  45.0148 277.9169 0001871 196.4168 163.6621 14.41608339357284
ORBCOMM FM03 [-]        
1 25158U 98007B   23315.91739663  .00001487  00000+0  60063-3 0  9990
2 25158 107.9774  20.1922 0048608 189.3309 170.6930 14.31464160340499
ORBCOMM FM17 [-]        
1 25413U 98046A   23315.76202882  .00001353  00000+0  54597-3 0  9995
2 25413  44.9923 125.0507 0002701 167.5877 192.5035 14.32510743319445
ORBCOMM FM18 [-]        
1 25414U 98046B   23315.60328267  .00002174  00000+0  80419-3 0  9999
2 25414  44.9938  56.5766 0005794 224.9727 135.0651 14.35063437320493
